{"type":"Topology","arcs":[[[800,1319],[-8,8],[-17,31],[5,61],[8,10]],[[788,1429],[18,18],[20,39]],[[826,1486],[24,-16],[27,-32],[13,-14],[4,-4],[16,-19],[5,-18]],[[915,1383],[-2,-21],[-3,-18],[-3,-39],[-2,-33],[-14,-13]],[[891,1259],[-2,9],[-13,23],[-13,8],[-32,9],[-7,2],[-24,9]],[[826,1486],[16,43],[17,30],[11,12],[41,58]],[[911,1629],[101,-14],[115,-14],[65,31],[-3,-58],[-45,-180],[-8,-38]],[[1136,1356],[-62,2]],[[1074,1358],[-45,6],[-47,-1],[-29,0],[-30,18],[-8,2]],[[2785,1879],[40,-12],[-27,-40],[148,-124],[-149,-145],[-139,-254],[-109,-195],[-119,28],[-209,55],[-377,8],[1,-118],[-81,-229],[1,31],[-128,58],[-64,5]],[[1573,947],[-40,2],[-25,43],[-29,119]],[[1479,1111],[81,12],[-6,134],[46,49],[237,-33],[-8,129],[47,111],[-55,101],[-40,93],[-63,170],[-62,24],[22,20]],[[1678,1921],[24,11],[19,80],[37,66],[-25,153],[4,7]],[[1737,2238],[198,1],[309,57],[264,43],[315,43],[-28,-311],[-10,-192]],[[1074,1358],[2,-29],[11,-104],[4,-32],[6,-55]],[[1097,1138],[-25,-157],[-61,-33],[-77,54]],[[934,1002],[-18,13],[-55,18],[-29,6],[-49,42],[42,53],[44,35],[20,39],[2,51]],[[1405,1879],[-140,-24],[-17,78],[-111,-20],[-94,-27],[-3,-1]],[[1040,1885],[77,337],[42,191],[42,17],[153,-62],[-7,59],[78,-31],[11,-59],[313,-32],[-12,-67]],[[1678,1921],[-58,-3],[-22,-43],[-44,-7],[-65,-12]],[[1489,1856],[-36,-7],[-48,30]],[[1385,1625],[43,91],[61,140]],[[1479,1111],[-137,30],[-1,87],[-3,75],[-34,17]],[[1304,1320],[15,37],[15,15],[-46,68],[-30,201],[84,-39],[43,23]],[[1573,947],[-28,-90],[-331,85],[46,77],[-26,71],[-19,13],[-118,35]],[[1136,1356],[37,-8],[131,-28]],[[934,1002],[-22,-53],[30,-44],[-7,-97],[-34,-75],[31,-118],[-128,-91],[-84,76]],[[720,600],[23,67],[-47,47],[13,57],[-21,123],[-28,-17],[-67,29],[4,73],[-14,-1],[0,34],[-9,5],[-44,57],[4,83],[84,-6],[21,24],[43,15],[12,34],[-39,45],[-7,69],[-41,111],[16,55],[51,17],[-3,8],[-4,30],[12,4],[66,-75],[43,-59]],[[911,1629],[-7,67]],[[904,1696],[-41,42],[177,147]],[[720,600],[-34,-46],[-15,53],[-58,8],[-40,-99],[-10,-173],[65,-343],[-228,23],[-18,228],[60,57],[-21,52],[-102,2],[-31,88],[-42,109],[-7,136],[-26,1],[-26,67],[-98,32],[-9,77],[-25,4],[-37,183],[18,232],[-23,195],[-13,163],[400,-14],[72,-6],[186,-17],[27,-13],[-17,-30],[135,49],[101,78]]],"transform":{"scale":[0.0002070837452726501,0.000192413241608257],"translate":[100.32788911328558,13.486989244749138]},"objects":{"districts":{"type":"GeometryCollection","geometries":[{"arcs":[[0,1,2,3,4]],"type":"Polygon","properties":{"amp_en":"Old City / Rattanakosin","amp_th":"เมืองเก่า / รัตนโกสินทร์","pro_code":"10","pro_en":"Bangkok","pro_th":"กรุงเทพมหานคร","amp_code":"1001"}},{"arcs":[[-3,5,6,7,8]],"type":"Polygon","properties":{"amp_en":"Dusit / Victory Monument","amp_th":"ดุสิต / อนุสาวรีย์ชัยสมรภูมิ","pro_code":"10","pro_en":"Bangkok","pro_th":"กรุงเทพมหานคร","amp_code":"1002"}},{"arcs":[[9,10,11,12,13]],"type":"Polygon","properties":{"amp_en":"East outer Bangkok","amp_th":"กรุงเทพฯตะวันออกชั้นนอก","pro_code":"10","pro_en":"Bangkok","pro_th":"กรุงเทพมหานคร","amp_code":"1010"}},{"arcs":[[-4,-9,14,15,16]],"type":"Polygon","properties":{"amp_en":"Siam / Silom / Sathon","amp_th":"สยาม / สีลม / สาทร","pro_code":"10","pro_en":"Bangkok","pro_th":"กรุงเทพมหานคร","amp_code":"1007"}},{"arcs":[[17,18,-13,19,20]],"type":"Polygon","properties":{"amp_en":"North / Don Mueang","amp_th":"กรุงเทพฯเหนือ / ดอนเมือง","pro_code":"10","pro_en":"Bangkok","pro_th":"กรุงเทพมหานคร","amp_code":"1036"}},{"arcs":[[21,-20,-12,22,23]],"type":"Polygon","properties":{"amp_en":"East inner Bangkok","amp_th":"กรุงเทพฯตะวันออกชั้นใน","pro_code":"10","pro_en":"Bangkok","pro_th":"กรุงเทพมหานคร","amp_code":"1006"}},{"arcs":[[-11,24,-15,-8,25,-23]],"type":"Polygon","properties":{"amp_en":"Sukhumvit","amp_th":"สุขุมวิท","pro_code":"10","pro_en":"Bangkok","pro_th":"กรุงเทพมหานคร","amp_code":"1033"}},{"arcs":[[-1,-5,-17,26,27]],"type":"Polygon","properties":{"amp_en":"Thonburi inner","amp_th":"ธนบุรีชั้นใน","pro_code":"10","pro_en":"Bangkok","pro_th":"กรุงเทพมหานคร","amp_code":"1015"}},{"arcs":[[-7,28,29,-18,-21,-22,-24,-26]],"type":"Polygon","properties":{"amp_en":"Chatuchak / inner north","amp_th":"จตุจักร / กรุงเทพฯเหนือชั้นใน","pro_code":"10","pro_en":"Bangkok","pro_th":"กรุงเทพมหานคร","amp_code":"1030"}},{"arcs":[[-28,30,-29,-6,-2]],"type":"Polygon","properties":{"amp_en":"Thonburi west","amp_th":"ธนบุรีตะวันตก","pro_code":"10","pro_en":"Bangkok","pro_th":"กรุงเทพมหานคร","amp_code":"1019"}}]}}}