{"type":"Topology","arcs":[[[1645,2558],[-66,-76],[-75,-25],[-27,-31],[-51,2]],[[1426,2428],[0,114],[-96,39],[-54,114],[-89,68]],[[1187,2763],[17,26],[123,18],[46,-45],[8,-61],[54,-38],[109,68],[115,-80]],[[1659,2651],[-14,-93]],[[886,3418],[-24,-70],[-145,-19],[-91,60],[-18,61],[-108,-24],[-86,68],[-51,-26],[-115,75]],[[248,3543],[52,117],[125,148],[-18,80],[204,0],[17,-115],[145,-140]],[[773,3633],[-42,-51],[17,-65],[43,-39],[89,18],[-30,-47],[36,-31]],[[1187,2763],[-79,-39],[-200,23]],[[908,2747],[18,359],[130,69]],[[1056,3175],[9,-60],[77,-92],[65,0],[74,45],[49,-10],[22,-39],[136,6],[24,35],[31,-22]],[[1543,3038],[54,-34]],[[1597,3004],[-34,-68],[44,-38],[-21,-53],[73,-194]],[[2686,2722],[-44,-9],[-31,-89],[-188,116],[-14,7],[34,50],[-4,71]],[[2439,2868],[64,34],[8,100],[-26,45],[-80,28],[24,49],[-40,74]],[[2389,3198],[54,42],[-1,66],[43,43],[126,63],[64,-20],[61,23]],[[2736,3415],[16,-108],[-68,-44],[38,-189],[-47,-35],[-43,-103],[41,-58],[-30,-14],[-10,-64],[65,-24],[-12,-54]],[[1353,5118],[45,-91],[56,-23],[-6,-79],[118,-102],[-34,-34],[40,-101],[-4,-106],[-61,9],[24,-23],[-14,-53],[-158,-63],[-137,20],[-104,-33]],[[1118,4439],[11,133],[-16,52],[-46,26],[2,66],[-48,24],[-6,104],[-138,71],[-11,70],[105,48],[103,-88],[9,63],[106,19],[5,30],[159,61]],[[2566,4736],[-202,23],[-60,-21],[-16,24],[-52,-25]],[[2236,4737],[-52,63],[-42,6],[5,53],[-29,9],[-28,93],[-68,30],[-27,131],[25,50],[-33,18]],[[1987,5190],[8,5]],[[1995,5195],[35,11],[30,-78],[235,11],[14,-50],[126,50],[136,-29],[89,-84]],[[2660,5026],[-57,-10],[-113,-117],[76,-163]],[[1317,2318],[-11,-29],[47,-67],[-67,-15],[3,-33],[199,-111],[26,-155]],[[1514,1908],[-125,-63],[-101,28],[-241,143],[-190,-22],[-87,50]],[[770,2044],[88,61],[-23,97],[77,195],[-29,90],[71,54],[-9,68],[-47,52],[10,86]],[[1426,2428],[-64,13],[-31,-47],[33,-8],[-47,-68]],[[770,2044],[-147,84],[-24,-25],[-59,15],[-23,-103],[-77,-4],[-17,-32],[-53,-10],[-31,85],[-45,12],[-61,-73]],[[233,1993],[-39,36],[0,84],[109,8],[32,43],[-21,53],[-57,28],[-52,35],[-39,87],[-107,48],[65,59],[31,86],[112,46],[-2,48],[71,-20],[58,71],[-54,73],[-57,4],[0,31],[-134,20],[-26,87],[-23,122],[57,75],[-58,6],[-25,119],[44,99],[111,72],[0,36],[33,27],[-14,67]],[[886,3418],[60,-27],[-20,-42],[61,-28],[-19,-30],[88,-116]],[[2060,3107],[-56,-43],[-68,8],[-5,-116]],[[1931,2956],[-16,81],[-162,21],[-18,71],[-57,43],[10,74]],[[1688,3246],[280,21]],[[1968,3267],[54,-111],[40,10]],[[2062,3166],[-2,-59]],[[1528,3267],[-26,-96],[47,-74],[-6,-59]],[[773,3633],[34,41],[212,-46],[203,89]],[[1222,3717],[52,12],[98,-44],[28,33],[89,11]],[[1489,3729],[-47,-105],[106,-183],[-20,-174]],[[2704,5156],[-3,-98],[-41,-32]],[[1995,5195],[35,110],[-22,160],[41,7],[-26,80],[49,65],[-20,73],[58,119],[120,17]],[[2230,5826],[38,-167],[194,-125],[4,-123],[117,-58],[121,-197]],[[1875,3660],[-282,-19],[-104,88]],[[1222,3717],[23,51],[-37,125],[-133,104],[61,45],[-23,53],[31,47],[-16,153]],[[1128,4295],[205,-38],[21,-74],[85,55],[133,-76],[112,14],[70,-58],[77,24],[72,-26],[19,36],[113,-50],[82,8]],[[2117,4110],[56,-13],[104,-111],[-54,-81],[12,-30],[-52,-33],[57,-66],[-47,-55]],[[2193,3721],[-72,-63]],[[2121,3658],[-217,133],[-70,-30],[41,-101]],[[1688,3246],[-31,47],[-40,-34],[-89,8]],[[1875,3660],[12,-142],[81,-251]],[[1128,4295],[-44,71],[47,38],[-13,35]],[[1353,5118],[16,21],[136,-33],[124,124],[161,-142],[35,62],[96,-80],[22,96],[44,24]],[[2236,4737],[-36,-84],[78,-33],[1,-80],[-59,-36],[12,-89],[-44,-11],[-26,-49],[10,-53],[-41,-93],[18,-62],[-32,-37]],[[2062,3166],[5,45],[145,133],[9,58],[-17,46],[-118,72],[8,43],[43,18],[-16,77]],[[2193,3721],[93,-130],[189,-18],[4,62],[62,10],[119,130]],[[2660,3775],[87,-69],[37,-130],[-58,-36],[28,-78],[-18,-47]],[[2389,3198],[-87,-17],[-29,-34],[-71,17],[-38,-57],[-14,25],[-68,-5],[-20,39]],[[2439,2868],[-92,55],[1,57],[-69,6],[-115,-82],[-47,6]],[[2117,2910],[-11,122],[-46,75]],[[2566,4736],[63,-63],[-64,-95],[27,-8],[3,-116],[41,-66],[7,-76],[-34,-23],[54,-166],[-80,-153],[77,-195]],[[1597,3004],[195,-156],[31,-92],[58,-1]],[[1881,2755],[-54,-109],[-182,-88]],[[2230,5826],[-10,25],[69,30],[107,-4],[231,-123],[234,40],[123,52],[29,64],[118,-50],[0,-29],[-155,-57],[4,-59],[-60,-36],[23,-42],[-54,-65],[-63,-37],[-4,-90],[-75,-57],[72,-157],[-55,1],[-60,-76]],[[2117,2910],[-18,-18],[-117,18],[-11,-55],[-82,-63]],[[1889,2792],[-22,52],[64,112]],[[1314,1116],[-30,88],[-65,-40],[-31,-75],[-68,57],[-40,9],[-24,-27],[-83,57],[-52,-22]],[[921,1163],[-27,55],[-46,-2],[-55,49],[-2,62],[107,31]],[[898,1358],[17,-20],[58,61],[151,17],[-40,83],[70,30],[1,33],[-50,17],[25,22],[32,-21],[7,24],[-47,40],[88,51],[54,-21],[41,-87],[201,-34]],[[1506,1553],[63,6],[51,-40],[74,-283],[-36,-5],[7,-67],[-115,-38],[-34,75],[-43,-64],[-159,-21]],[[1096,115],[-10,-29],[-233,-18],[-140,-68],[-154,160],[34,57],[-87,120],[64,18],[14,107],[-65,218],[-60,6],[-124,-81],[-147,3],[-96,194],[113,93],[16,96],[-35,62],[26,34],[-155,109],[-57,139],[31,70],[-26,23],[85,39],[112,-56],[38,71],[173,36],[-52,73],[46,69]],[[407,1660],[148,-62],[50,41],[98,-17],[68,-47],[10,-60],[117,-157]],[[921,1163],[67,-216],[-7,-275],[32,-44],[-41,-149],[80,-117],[-41,-118],[50,-22],[-9,-117],[44,10]],[[1889,2792],[-8,-37]],[[1514,1908],[50,-87],[-19,-102],[33,-16],[-72,-150]],[[407,1660],[-2,60],[-102,19],[-23,115],[-44,6],[34,71],[-9,55],[-28,7]]],"transform":{"scale":[0.0004872210783436068,0.0004915010841675977],"translate":[98.04503326609439,17.24233560427451]},"objects":{"districts":{"type":"GeometryCollection","geometries":[{"arcs":[[0,1,2,3]],"type":"Polygon","properties":{"amp_code":"5024","amp_th":"ดอยหล่อ","amp_en":"Doi Lo","pro_code":"50","pro_th":"เชียงใหม่","pro_en":"Chiang Mai","reg_nesdb":"UpperNorth","reg_royin":"North","perimeter":80.66561262677,"area_sqkm":222.72785492}},{"arcs":[[4,5,6]],"type":"Polygon","properties":{"amp_code":"5025","amp_th":"กัลยาณิวัฒนา","amp_en":"Galyani Vadhana","pro_code":"50","pro_th":"เชียงใหม่","pro_en":"Chiang Mai","reg_nesdb":"UpperNorth","reg_royin":"North","perimeter":123.54647550717,"area_sqkm":522.72353111238}},{"arcs":[[-3,7,8,9,10,11]],"type":"Polygon","properties":{"amp_code":"5022","amp_th":"แม่วาง","amp_en":"Mae Wang","pro_code":"50","pro_th":"เชียงใหม่","pro_en":"Chiang Mai","reg_nesdb":"UpperNorth","reg_royin":"North","perimeter":140.89970638307,"area_sqkm":618.96494092241}},{"arcs":[[12,13,14,15]],"type":"Polygon","properties":{"amp_code":"5023","amp_th":"แม่ออน","amp_en":"Mae On","pro_code":"50","pro_th":"เชียงใหม่","pro_en":"Chiang Mai","reg_nesdb":"UpperNorth","reg_royin":"North","perimeter":127.20686489925,"area_sqkm":469.1583571463}},{"arcs":[[16,17]],"type":"Polygon","properties":{"amp_code":"5020","amp_th":"เวียงแหง","amp_en":"Wiang Haeng","pro_code":"50","pro_th":"เชียงใหม่","pro_en":"Chiang Mai","reg_nesdb":"UpperNorth","reg_royin":"North","perimeter":143.8361025917,"area_sqkm":789.31379935843}},{"arcs":[[18,19,20,21,22]],"type":"Polygon","properties":{"amp_code":"5021","amp_th":"ไชยปราการ","amp_en":"Chai Prakan","pro_code":"50","pro_th":"เชียงใหม่","pro_en":"Chiang Mai","reg_nesdb":"UpperNorth","reg_royin":"North","perimeter":120.35710693145,"area_sqkm":497.82444541499}},{"arcs":[[23,24,25,-8,-2,26]],"type":"Polygon","properties":{"amp_code":"5002","amp_th":"จอมทอง","amp_en":"Chom Thong","pro_code":"50","pro_th":"เชียงใหม่","pro_en":"Chiang Mai","reg_nesdb":"UpperNorth","reg_royin":"North","perimeter":183.44265256127,"area_sqkm":1108.02940320537}},{"arcs":[[27,28,-5,29,-9,-26]],"type":"Polygon","properties":{"amp_code":"5003","amp_th":"แม่แจ่ม","amp_en":"Mae Chaem","pro_code":"50","pro_th":"เชียงใหม่","pro_en":"Chiang Mai","reg_nesdb":"UpperNorth","reg_royin":"North","perimeter":326.23105429982,"area_sqkm":2811.05855002709}},{"arcs":[[30,31,32,33,34]],"type":"Polygon","properties":{"amp_code":"5001","amp_th":"เมืองเชียงใหม่","amp_en":"Mueang Chiang Mai","pro_code":"50","pro_th":"เชียงใหม่","pro_en":"Chiang Mai","reg_nesdb":"UpperNorth","reg_royin":"North","perimeter":70.10869526998,"area_sqkm":173.69166754546}},{"arcs":[[35,-10,-30,-7,36,37,38]],"type":"Polygon","properties":{"amp_code":"5008","amp_th":"สะเมิง","amp_en":"Samoeng","pro_code":"50","pro_th":"เชียงใหม่","pro_en":"Chiang Mai","reg_nesdb":"UpperNorth","reg_royin":"North","perimeter":163.13979823738,"area_sqkm":1056.52438412778}},{"arcs":[[39,-22,40,41]],"type":"Polygon","properties":{"amp_code":"5009","amp_th":"ฝาง","amp_en":"Fang","pro_code":"50","pro_th":"เชียงใหม่","pro_en":"Chiang Mai","reg_nesdb":"UpperNorth","reg_royin":"North","perimeter":148.90901657751,"area_sqkm":841.48015212438}},{"arcs":[[42,-38,43,44,45,46,47]],"type":"Polygon","properties":{"amp_code":"5006","amp_th":"แม่แตง","amp_en":"Mae Taeng","pro_code":"50","pro_th":"เชียงใหม่","pro_en":"Chiang Mai","reg_nesdb":"UpperNorth","reg_royin":"North","perimeter":209.81029601962,"area_sqkm":1417.6423102309}},{"arcs":[[-33,48,-39,-43,49]],"type":"Polygon","properties":{"amp_code":"5007","amp_th":"แม่ริม","amp_en":"Mae Rim","pro_code":"50","pro_th":"เชียงใหม่","pro_en":"Chiang Mai","reg_nesdb":"UpperNorth","reg_royin":"North","perimeter":103.75289003292,"area_sqkm":460.43261780107}},{"arcs":[[-45,50,-17,51,-20,52]],"type":"Polygon","properties":{"amp_code":"5004","amp_th":"เชียงดาว","amp_en":"Chiang Dao","pro_code":"50","pro_th":"เชียงใหม่","pro_en":"Chiang Mai","reg_nesdb":"UpperNorth","reg_royin":"North","perimeter":271.6525768519,"area_sqkm":2071.86032286431}},{"arcs":[[53,-47,54,55,-15,56]],"type":"Polygon","properties":{"amp_code":"5005","amp_th":"ดอยสะเก็ด","amp_en":"Doi Saket","pro_code":"50","pro_th":"เชียงใหม่","pro_en":"Chiang Mai","reg_nesdb":"UpperNorth","reg_royin":"North","perimeter":154.78397897791,"area_sqkm":651.33490537021}},{"arcs":[[57,58,-35,-57,-14]],"type":"Polygon","properties":{"amp_code":"5013","amp_th":"สันกำแพง","amp_en":"San Kamphaeng","pro_code":"50","pro_th":"เชียงใหม่","pro_en":"Chiang Mai","reg_nesdb":"UpperNorth","reg_royin":"North","perimeter":87.56916771444,"area_sqkm":245.12788881199}},{"arcs":[[-34,-50,-48,-54]],"type":"Polygon","properties":{"amp_code":"5014","amp_th":"สันทราย","amp_en":"San Sai","pro_code":"50","pro_th":"เชียงใหม่","pro_en":"Chiang Mai","reg_nesdb":"UpperNorth","reg_royin":"North","perimeter":100.80215072606,"area_sqkm":342.31658438601}},{"arcs":[[-55,-46,-53,-19,59]],"type":"Polygon","properties":{"amp_code":"5011","amp_th":"พร้าว","amp_en":"Phrao","pro_code":"50","pro_th":"เชียงใหม่","pro_en":"Chiang Mai","reg_nesdb":"UpperNorth","reg_royin":"North","perimeter":195.51421057491,"area_sqkm":1280.91744762048}},{"arcs":[[-4,-12,60,61]],"type":"Polygon","properties":{"amp_code":"5012","amp_th":"สันป่าตอง","amp_en":"San Pa Tong","pro_code":"50","pro_th":"เชียงใหม่","pro_en":"Chiang Mai","reg_nesdb":"UpperNorth","reg_royin":"North","perimeter":72.31162881906,"area_sqkm":177.3796884442}},{"arcs":[[-42,62]],"type":"Polygon","properties":{"amp_code":"5010","amp_th":"แม่อาย","amp_en":"Mae Ai","pro_code":"50","pro_th":"เชียงใหม่","pro_en":"Chiang Mai","reg_nesdb":"UpperNorth","reg_royin":"North","perimeter":165.0546385518,"area_sqkm":755.8706888325}},{"arcs":[[63,64,-31,-59]],"type":"Polygon","properties":{"amp_code":"5019","amp_th":"สารภี","amp_en":"Saraphi","pro_code":"50","pro_th":"เชียงใหม่","pro_en":"Chiang Mai","reg_nesdb":"UpperNorth","reg_royin":"North","perimeter":53.63269967729,"area_sqkm":106.68922355362}},{"arcs":[[65,66,67,68]],"type":"Polygon","properties":{"amp_code":"5017","amp_th":"ดอยเต่า","amp_en":"Doi Tao","pro_code":"50","pro_th":"เชียงใหม่","pro_en":"Chiang Mai","reg_nesdb":"UpperNorth","reg_royin":"North","perimeter":170.84476336128,"area_sqkm":851.1196890532}},{"arcs":[[69,70,-67,71]],"type":"Polygon","properties":{"amp_code":"5018","amp_th":"อมก๋อย","amp_en":"Omkoi","pro_code":"50","pro_th":"เชียงใหม่","pro_en":"Chiang Mai","reg_nesdb":"UpperNorth","reg_royin":"North","perimeter":314.64973836561,"area_sqkm":2815.74537411868}},{"arcs":[[72,-61,-11,-36,-49,-32,-65]],"type":"Polygon","properties":{"amp_code":"5015","amp_th":"หางดง","amp_en":"Hang Dong","pro_code":"50","pro_th":"เชียงใหม่","pro_en":"Chiang Mai","reg_nesdb":"UpperNorth","reg_royin":"North","perimeter":93.22251122973,"area_sqkm":271.90339472207}},{"arcs":[[73,-68,-71,74,-28,-25]],"type":"Polygon","properties":{"amp_code":"5016","amp_th":"ฮอด","amp_en":"Hot","pro_code":"50","pro_th":"เชียงใหม่","pro_en":"Chiang Mai","reg_nesdb":"UpperNorth","reg_royin":"North","perimeter":245.28715549255,"area_sqkm":1497.05009663455}}]}}}