{"type":"Topology","arcs":[[[232,852],[-11,19],[14,-9],[-3,-10]],[[132,847],[-45,-99],[-42,-22],[-15,55],[-30,19],[22,62],[49,-16],[64,55],[-3,-54]],[[136,937],[26,-3],[-26,-12],[0,15]],[[902,1049],[-72,-171]],[[830,878],[-44,5]],[[786,883],[17,43]],[[803,926],[-32,5],[7,28],[-97,8]],[[681,967],[1,86],[60,21],[43,-21],[57,30],[62,56],[41,84],[52,-46],[-95,-128]],[[848,590],[-50,151]],[[798,741],[32,137]],[[902,1049],[52,-20],[128,7],[49,-89],[15,8],[-33,-113],[69,-21],[20,-122],[-112,-49],[-178,35],[-64,-95]],[[736,579],[114,-3]],[[850,576],[39,-50],[28,-154],[77,-47],[25,-57],[42,-10],[63,-98],[53,14],[48,-14],[5,-24],[50,46],[19,-26],[-13,-43],[-46,-20],[-90,-93],[-20,11],[-1,92],[-53,0],[-35,-30],[-87,23],[23,98],[-45,-4],[0,-21],[-129,25],[55,159],[-122,226]],[[662,886],[18,10],[1,71]],[[803,926],[-16,-40]],[[787,886],[-125,0]],[[816,818],[-278,0]],[[538,818],[19,54],[42,-24],[63,38]],[[787,886],[-1,-3]],[[830,878],[-14,-60]],[[816,818],[-18,-77]],[[798,741],[2,-5]],[[800,736],[-226,0]],[[574,736],[-48,47],[12,35]],[[800,736],[48,-146]],[[848,590],[2,-14]],[[736,579],[-162,157]]],"transform":{"scale":[0.00017055842053073314,0.00022133024003282253],"translate":[100.76666461090127,12.736995014088865]},"objects":{"districts":{"type":"GeometryCollection","geometries":[{"arcs":[[[0]],[[1]],[[2]],[[3,4,5,6,7]]],"type":"MultiPolygon","properties":{"amp_code":"200408","amp_en":"North Pattaya / Naklua / Wongamat","amp_th":"พัทยาเหนือ / นาเกลือ / วงศ์อมาตย์","pro_code":"20","pro_th":"ชลบุรี","pro_en":"Chon Buri","tam_code":"200408","FID":"200408"},"id":"200408"},{"arcs":[[8,9,-4,10]],"type":"Polygon","properties":{"amp_code":"200402","amp_en":"East Pattaya / Nong Prue","amp_th":"พัทยาตะวันออก / หนองปรือ","pro_code":"20","pro_th":"ชลบุรี","pro_en":"Chon Buri","tam_code":"200402","FID":"200402"},"id":"200402"},{"arcs":[[11,12]],"type":"Polygon","properties":{"amp_code":"200902","amp_en":"Na Jomtien","amp_th":"นาจอมเทียน","pro_code":"20","pro_th":"ชลบุรี","pro_en":"Chon Buri","tam_code":"200902","FID":"200902"},"id":"200902"},{"arcs":[[13,-7,14,15]],"type":"Polygon","properties":{"amp_code":"200491","amp_en":"Central Pattaya","amp_th":"พัทยากลาง","pro_code":"20","pro_th":"ชลบุรี","pro_en":"Chon Buri","tam_code":"200409","FID":"200491"},"id":"200491"},{"arcs":[[16,17,-16,18,-5,19]],"type":"Polygon","properties":{"amp_code":"200492","amp_en":"South Pattaya / Walking Street area","amp_th":"พัทยาใต้ / วอล์คกิ้งสตรีท","pro_code":"20","pro_th":"ชลบุรี","pro_en":"Chon Buri","tam_code":"200409","FID":"200492"},"id":"200492"},{"arcs":[[20,21,22,23,-17]],"type":"Polygon","properties":{"amp_code":"200493","amp_en":"Pratumnak","amp_th":"พระตำหนัก","pro_code":"20","pro_th":"ชลบุรี","pro_en":"Chon Buri","tam_code":"200409","FID":"200493"},"id":"200493"},{"arcs":[[24,25,-12,26,-23]],"type":"Polygon","properties":{"amp_code":"200494","amp_en":"Jomtien","amp_th":"จอมเทียน","pro_code":"20","pro_th":"ชลบุรี","pro_en":"Chon Buri","tam_code":"200409","FID":"200494"},"id":"200494"}]}}}