{"type":"Topology","arcs":[[[7497,1757],[-827,-1757],[-923,1757]],[[5747,1757],[1750,0]],[[5747,1757],[-686,428]],[[5061,2185],[224,1299],[9,37]],[[5294,3521],[137,601],[1211,275]],[[6642,4397],[855,-2640]],[[9999,5227],[-274,-2935],[-1382,1975],[1656,960]],[[5061,2185],[-1303,-1306],[-827,2642]],[[2931,3521],[2363,0]],[[2931,3521],[149,1947]],[[3080,5468],[2862,656]],[[5942,6124],[700,-1727]],[[3080,5468],[-3080,-3798],[1642,8329],[4615,-410],[-315,-3465]]],"transform":{"scale":[0.000025908450635440947,0.000020411692784971],"translate":[98.66746991756509,8.003136273175887]},"objects":{"districts":{"type":"GeometryCollection","geometries":[{"arcs":[[0,1]],"type":"Polygon","properties":{"amp_en":"Ao Nang Center","amp_th":"อ่าวนางกลาง","pro_code":"81","pro_en":"Krabi","pro_th":"กระบี่","amp_code":"810191"}},{"arcs":[[-2,2,3,4,5]],"type":"Polygon","properties":{"amp_en":"Noppharat Thara","amp_th":"นพรัตน์ธารา","pro_code":"81","pro_en":"Krabi","pro_th":"กระบี่","amp_code":"810192"}},{"arcs":[[6]],"type":"Polygon","properties":{"amp_en":"Krabi Town","amp_th":"เมืองกระบี่","pro_code":"81","pro_en":"Krabi","pro_th":"กระบี่","amp_code":"810101"}},{"arcs":[[-4,7,8]],"type":"Polygon","properties":{"amp_en":"Klong Muang","amp_th":"คลองม่วง","pro_code":"81","pro_en":"Krabi","pro_th":"กระบี่","amp_code":"810193"}},{"arcs":[[-5,-9,9,10,11]],"type":"Polygon","properties":{"amp_en":"Tubkaek","amp_th":"ถ้ำแขก","pro_code":"81","pro_en":"Krabi","pro_th":"กระบี่","amp_code":"810194"}},{"arcs":[[-11,12]],"type":"Polygon","properties":{"amp_en":"Khao Thong","amp_th":"เขาทอง","pro_code":"81","pro_en":"Krabi","pro_th":"กระบี่","amp_code":"810106"}}]}}}