{"type":"Topology","arcs":[[[211,694],[-9,77]],[[202,771],[58,89],[44,-6]],[[304,854],[-9,-21],[126,-28]],[[421,805],[5,-2]],[[426,803],[-47,-67],[-168,-42]],[[281,535],[-11,-26],[-27,6]],[[243,515],[-65,71]],[[178,586],[45,4],[-31,38],[19,66]],[[426,803],[73,-61],[-60,-15],[-100,-146],[-64,-1],[6,-45]],[[304,854],[94,30],[34,-38],[-11,-41]],[[10,660],[17,42],[54,5]],[[81,707],[35,-42]],[[116,665],[-106,-5]],[[333,268],[-78,22],[-33,222]],[[222,512],[21,3]],[[281,535],[53,-198],[59,-36],[-7,-35],[-53,2]],[[178,586],[-62,79]],[[81,707],[121,64]],[[222,512],[-119,-20]],[[103,492],[-28,81],[-75,38],[24,16],[-14,33]],[[333,268],[16,-28],[-58,-110],[-110,25],[-22,-109],[-43,15],[-103,-61],[-5,167],[48,18],[-47,68],[76,28],[30,-24],[37,36],[-28,96],[-43,10],[22,93]]],"transform":{"scale":[0.0012966376720018565,0.0014513570592485769],"translate":[98.67326606393893,17.424063518447035]},"objects":{"districts":{"type":"GeometryCollection","geometries":[{"arcs":[[0,1,2,3,4]],"type":"Polygon","properties":{"amp_code":"5101","amp_th":"เมืองลำพูน","amp_en":"Mueang Lamphun","pro_code":"51","pro_th":"ลำพูน","pro_en":"Lamphun","reg_nesdb":"UpperNorth","reg_royin":"North","perimeter":107.746754957,"area_sqkm":479.29213291835},"id":"5101"},{"arcs":[[5,6,7,-5,8]],"type":"Polygon","properties":{"amp_code":"5102","amp_th":"แม่ทา","amp_en":"Mae Tha","pro_code":"51","pro_th":"ลำพูน","pro_en":"Lamphun","reg_nesdb":"UpperNorth","reg_royin":"North","perimeter":171.2299371079,"area_sqkm":763.35622107768},"id":"5102"},{"arcs":[[-3,9]],"type":"Polygon","properties":{"amp_code":"5107","amp_th":"บ้านธิ","amp_en":"Ban Thi","pro_code":"51","pro_th":"ลำพูน","pro_en":"Lamphun","reg_nesdb":"UpperNorth","reg_royin":"North","perimeter":57.34254481873,"area_sqkm":134.47688802164},"id":"5107"},{"arcs":[[10,11,12]],"type":"Polygon","properties":{"amp_code":"5108","amp_th":"เวียงหนองล่อง","amp_en":"Wiang Nong Long","pro_code":"51","pro_th":"ลำพูน","pro_en":"Lamphun","reg_nesdb":"UpperNorth","reg_royin":"North","perimeter":46.75814056451,"area_sqkm":53.79925914489},"id":"5108"},{"arcs":[[13,14,-6,15]],"type":"Polygon","properties":{"amp_code":"5105","amp_th":"ทุ่งหัวช้าง","amp_en":"Thung Hua Chang","pro_code":"51","pro_th":"ลำพูน","pro_en":"Lamphun","reg_nesdb":"UpperNorth","reg_royin":"North","perimeter":133.44696102176,"area_sqkm":457.43317294979},"id":"5105"},{"arcs":[[-8,16,-12,17,-1]],"type":"Polygon","properties":{"amp_code":"5106","amp_th":"ป่าซาง","amp_en":"Pa Sang","pro_code":"51","pro_th":"ลำพูน","pro_en":"Lamphun","reg_nesdb":"UpperNorth","reg_royin":"North","perimeter":90.76554416039,"area_sqkm":292.59175965128},"id":"5106"},{"arcs":[[-7,-15,18,19,-13,-17]],"type":"Polygon","properties":{"amp_code":"5103","amp_th":"บ้านโฮ่ง","amp_en":"Ban Hong","pro_code":"51","pro_th":"ลำพูน","pro_en":"Lamphun","reg_nesdb":"UpperNorth","reg_royin":"North","perimeter":113.25761751991,"area_sqkm":506.08060770059},"id":"5103"},{"arcs":[[-19,-14,20]],"type":"Polygon","properties":{"amp_code":"5104","amp_th":"ลี้","amp_en":"Li","pro_code":"51","pro_th":"ลำพูน","pro_en":"Lamphun","reg_nesdb":"UpperNorth","reg_royin":"North","perimeter":292.18850844106,"area_sqkm":1794.15811664942},"id":"5104"}]}}}