{"type":"Topology","arcs":[[[6184,5193],[98,-157]],[[6282,5036],[-66,-301]],[[6216,4735],[-1224,299]],[[4992,5034],[1192,159]],[[8865,5252],[-2583,-216]],[[6184,5193],[128,935],[-939,700],[948,342],[-30,1298],[-768,706],[281,799]],[[5804,9973],[793,26],[236,-593],[1321,-513],[1166,-2282],[-455,-1359]],[[4992,5034],[-752,-227],[-1240,640]],[[3000,5447],[1217,100],[-397,707],[1229,2193],[-210,813],[-1222,594],[2187,119]],[[8865,5252],[521,-1497],[-646,-926]],[[8740,2829],[-2218,455]],[[6522,3284],[-306,1451]],[[6522,3284],[-17,-6]],[[6505,3278],[-1570,605],[-3030,-97],[-1300,1326]],[[605,5112],[2395,335]],[[6505,3278],[1240,-1161],[-757,-732],[-2153,-490]],[[4835,895],[-549,1004],[-2400,-3],[-1213,698],[137,878],[-749,58],[-61,957],[605,625]],[[8740,2829],[1259,-890],[-17,-1391],[-1792,-548],[-2358,40],[-997,855]]],"transform":{"scale":[0.000050881517261655854,0.00006723820984315042],"translate":[98.12465641083534,19.025459143224023]},"objects":{"districts":{"type":"GeometryCollection","geometries":[{"arcs":[[0,1,2,3]],"type":"Polygon","properties":{"amp_code":"580301","amp_en":"Wiang Tai / Pai town","amp_th":"เวียงใต้ / ตัวเมืองปาย","pro_code":"58","pro_en":"Mae Hong Son","pro_th":"แม่ฮ่องสอน"}},{"arcs":[[4,-1,5,6]],"type":"Polygon","properties":{"amp_code":"580302","amp_en":"Wiang Nuea","amp_th":"เวียงเหนือ","pro_code":"58","pro_en":"Mae Hong Son","pro_th":"แม่ฮ่องสอน"}},{"arcs":[[-6,-4,7,8]],"type":"Polygon","properties":{"amp_code":"580303","amp_en":"Mae Na Toeng","amp_th":"แม่นาเติง","pro_code":"58","pro_en":"Mae Hong Son","pro_th":"แม่ฮ่องสอน"}},{"arcs":[[9,10,11,-2,-5]],"type":"Polygon","properties":{"amp_code":"580304","amp_en":"Mae Hi","amp_th":"แม่ฮี้","pro_code":"58","pro_en":"Mae Hong Son","pro_th":"แม่ฮ่องสอน"}},{"arcs":[[-8,-3,-12,12,13,14]],"type":"Polygon","properties":{"amp_code":"580305","amp_en":"Thung Yao","amp_th":"ทุ่งยาว","pro_code":"58","pro_en":"Mae Hong Son","pro_th":"แม่ฮ่องสอน"}},{"arcs":[[15,16,-14]],"type":"Polygon","properties":{"amp_code":"580306","amp_en":"Mueang Paeng","amp_th":"เมืองแปง","pro_code":"58","pro_en":"Mae Hong Son","pro_th":"แม่ฮ่องสอน"}},{"arcs":[[17,-16,-13,-11]],"type":"Polygon","properties":{"amp_code":"580307","amp_en":"Pong Sa","amp_th":"โป่งสา","pro_code":"58","pro_en":"Mae Hong Son","pro_th":"แม่ฮ่องสอน"}}]}}}