{"type":"Topology","arcs":[[[7349,5439],[-786,-117],[859,-968],[-1784,553]],[[5638,4907],[-2220,452]],[[3418,5359],[1652,344],[132,545]],[[5202,6248],[2204,-90]],[[7406,6158],[1581,-643],[-1638,-76]],[[6469,6722],[937,-564]],[[5202,6248],[-698,118]],[[4504,6366],[1965,356]],[[5620,7539],[369,941]],[[5989,8480],[1238,-169],[895,300],[818,-445],[-1603,-568],[710,-610],[-1543,-119]],[[6504,6869],[-1242,104],[358,566]],[[5638,4907],[-1491,-279]],[[4147,4628],[-1113,12]],[[3034,4640],[-684,741]],[[2350,5381],[839,-42]],[[3189,5339],[229,20]],[[4147,4628],[-1260,-837],[-1266,215]],[[1621,4006],[1413,634]],[[1621,4006],[-849,1381]],[[772,5387],[1578,-6]],[[3189,5339],[-730,897]],[[2459,6236],[462,135]],[[2921,6371],[1583,-5]],[[772,5387],[-534,268],[1624,169],[-843,228]],[[1019,6052],[1440,184]],[[1019,6052],[-1019,199],[875,488]],[[875,6739],[1702,-128]],[[2577,6611],[344,-240]],[[6504,6869],[-35,-147]],[[2577,6611],[429,672],[-850,635]],[[2156,7918],[1271,574],[982,306]],[[4409,8798],[792,273],[1326,-220],[-538,-371]],[[875,6739],[28,1132]],[[903,7871],[1253,47]],[[903,7871],[1200,831],[-769,1297],[2501,-397],[574,-804]]],"transform":{"scale":[0.000020755471221660122,0.00007057368225508953],"translate":[98.25815524938913,7.494461867222965]},"objects":{"districts":{"type":"GeometryCollection","geometries":[{"arcs":[[0,1,2,3,4]],"type":"Polygon","properties":{"amp_en":"Phuket Town / Talad Yai / Talad Nuea","amp_th":"เมืองภูเก็ต / ตลาดใหญ่ / ตลาดเหนือ","pro_code":"83","pro_en":"Phuket","pro_th":"ภูเก็ต","amp_code":"830101"}},{"arcs":[[[5,-4,6,7]],[[8,9,10]]],"type":"MultiPolygon","properties":{"amp_en":"Pa Khlok / remote east Phuket","amp_th":"ป่าคลอก / ภูเก็ตตะวันออกห่างไกล","pro_code":"83","pro_en":"Phuket","pro_th":"ภูเก็ต","amp_code":"830304"}},{"arcs":[[-2,11,12,13,14,15]],"type":"Polygon","properties":{"amp_en":"Chalong","amp_th":"ฉลอง","pro_code":"83","pro_en":"Phuket","pro_th":"ภูเก็ต","amp_code":"830106"}},{"arcs":[[-13,16,17]],"type":"Polygon","properties":{"amp_en":"Rawai / Nai Harn","amp_th":"ราไวย์ / ในหาน","pro_code":"83","pro_en":"Phuket","pro_th":"ภูเก็ต","amp_code":"830107"}},{"arcs":[[-14,-18,18,19]],"type":"Polygon","properties":{"amp_en":"Kata / Karon","amp_th":"กะตะ / กะรน","pro_code":"83","pro_en":"Phuket","pro_th":"ภูเก็ต","amp_code":"830108"}},{"arcs":[[-7,-3,-16,20,21,22]],"type":"Polygon","properties":{"amp_en":"Kathu","amp_th":"กะทู้","pro_code":"83","pro_en":"Phuket","pro_th":"ภูเก็ต","amp_code":"830201"}},{"arcs":[[-15,-20,23,24,-21]],"type":"Polygon","properties":{"amp_en":"Patong","amp_th":"ป่าตอง","pro_code":"83","pro_en":"Phuket","pro_th":"ภูเก็ต","amp_code":"830202"}},{"arcs":[[-22,-25,25,26,27]],"type":"Polygon","properties":{"amp_en":"Kamala","amp_th":"กมลา","pro_code":"83","pro_en":"Phuket","pro_th":"ภูเก็ต","amp_code":"830203"}},{"arcs":[[-9,-11,28,-8,-23,-28,29,30,31]],"type":"Polygon","properties":{"amp_en":"Thalang / Thep Krasattri","amp_th":"ถลาง / เทพกระษัตรี","pro_code":"83","pro_en":"Phuket","pro_th":"ภูเก็ต","amp_code":"830301"}},{"arcs":[[-27,32,33,-30]],"type":"Polygon","properties":{"amp_en":"Cherng Talay / Bang Tao / Laguna","amp_th":"เชิงทะเล / บางเทา / ลากูน่า","pro_code":"83","pro_en":"Phuket","pro_th":"ภูเก็ต","amp_code":"830303"}},{"arcs":[[-31,-34,34]],"type":"Polygon","properties":{"amp_en":"Mai Khao / Airport / Sakhu","amp_th":"ไม้ขาว / สนามบิน / สะกู","pro_code":"83","pro_en":"Phuket","pro_th":"ภูเก็ต","amp_code":"830305"}}]}}}