{"type":"Topology","arcs":[[[8713,8553],[429,-3036]],[[9142,5517],[-1704,282]],[[7438,5799],[-35,688]],[[7403,6487],[-258,1963],[-94,103]],[[7051,8553],[1662,0]],[[7051,8553],[-258,284],[156,892]],[[6949,9729],[1764,-1176]],[[9142,5517],[488,-2533]],[[9630,2984],[-1340,0]],[[8290,2984],[-54,578],[-798,2237]],[[9630,2984],[369,-2984],[-2455,170]],[[7544,170],[820,2021],[-74,793]],[[7403,6487],[-6438,1285]],[[965,7772],[1220,2227],[4764,-270]],[[7544,170],[-5299,778],[-2245,3253],[965,3571]]],"transform":{"scale":[0.00002132859011633395,0.00001795808111156992],"translate":[99.77017761075464,12.451413017655552]},"objects":{"districts":{"type":"GeometryCollection","geometries":[{"arcs":[[0,1,2,3,4]],"type":"Polygon","properties":{"amp_en":"Hua Hin Center","amp_th":"หัวหินกลาง","pro_code":"77","pro_en":"Prachuap Khiri Khan","pro_th":"ประจวบคีรีขันธ์","amp_code":"770791"}},{"arcs":[[-5,5,6]],"type":"Polygon","properties":{"amp_en":"Bo Fai / Hua Hin Airport area","amp_th":"บ่อฝาย / พื้นที่สนามบินหัวหิน","pro_code":"77","pro_en":"Prachuap Khiri Khan","pro_th":"ประจวบคีรีขันธ์","amp_code":"770792"}},{"arcs":[[-2,7,8,9]],"type":"Polygon","properties":{"amp_en":"Khao Takiab / Nong Kae","amp_th":"เขาตะเกียบ / หนองแก","pro_code":"77","pro_en":"Prachuap Khiri Khan","pro_th":"ประจวบคีรีขันธ์","amp_code":"770793"}},{"arcs":[[-9,10,11]],"type":"Polygon","properties":{"amp_en":"Hua Don","amp_th":"หัวดอน","pro_code":"77","pro_en":"Prachuap Khiri Khan","pro_th":"ประจวบคีรีขันธ์","amp_code":"770794"}},{"arcs":[[-4,12,13,-6]],"type":"Polygon","properties":{"amp_en":"Hin Lek Fai","amp_th":"หินเหล็กไฟ","pro_code":"77","pro_en":"Prachuap Khiri Khan","pro_th":"ประจวบคีรีขันธ์","amp_code":"770703"}},{"arcs":[[-3,-10,-12,14,-13]],"type":"Polygon","properties":{"amp_en":"Thap Tai","amp_th":"ทับใต้","pro_code":"77","pro_en":"Prachuap Khiri Khan","pro_th":"ประจวบคีรีขันธ์","amp_code":"770705"}}]}}}