{"type":"Topology","arcs":[[[4388,6086],[-3398,-104]],[[990,5982],[-990,3149]],[[0,9131],[4388,-3045]],[[0,9131],[6243,-326]],[[6243,8805],[-1855,-2719]],[[4388,6086],[783,-666]],[[5171,5420],[-1066,-1030],[-1106,-4390],[-2193,498],[-133,3597],[317,1887]],[[7827,2837],[-2051,0]],[[5776,2837],[813,2041]],[[6589,4878],[980,-214]],[[7569,4664],[257,-56],[1356,-648]],[[9182,3960],[-1355,-1123]],[[7827,2837],[-2071,-2178],[20,2178]],[[6243,8805],[1326,-152]],[[7569,8653],[0,-1087]],[[7569,7566],[0,-2902]],[[6589,4878],[-1418,542]],[[7569,8653],[2431,1346],[-252,-2433]],[[9748,7566],[-2179,0]],[[9748,7566],[-566,-3606]]],"transform":{"scale":[0.000016447144756726574,0.0000179731781039961],"translate":[99.91551351852146,9.409018007022524]},"objects":{"districts":{"type":"GeometryCollection","geometries":[{"arcs":[[0,1,2]],"type":"Polygon","properties":{"amp_en":"Na Thon / Ang Thong","amp_th":"หน้าทอน / อ่างทอง","pro_code":"84","pro_en":"Surat Thani","pro_th":"สุราษฎร์ธานี","amp_code":"840401"}},{"arcs":[[-3,3,4]],"type":"Polygon","properties":{"amp_en":"Mae Nam","amp_th":"แม่น้ำ","pro_code":"84","pro_en":"Surat Thani","pro_th":"สุราษฎร์ธานี","amp_code":"840407"}},{"arcs":[[-1,5,6]],"type":"Polygon","properties":{"amp_en":"Lipa Noi / Taling Ngam","amp_th":"ลิปะน้อย / ตลิ่งงาม","pro_code":"84","pro_en":"Surat Thani","pro_th":"สุราษฎร์ธานี","amp_code":"840491"}},{"arcs":[[7,8,9,10,11]],"type":"Polygon","properties":{"amp_en":"Lamai","amp_th":"ละไม","pro_code":"84","pro_en":"Surat Thani","pro_th":"สุราษฎร์ธานี","amp_code":"840492"}},{"arcs":[[-8,12]],"type":"Polygon","properties":{"amp_en":"Hua Thanon","amp_th":"หัวถนน","pro_code":"84","pro_en":"Surat Thani","pro_th":"สุราษฎร์ธานี","amp_code":"840493"}},{"arcs":[[-5,13,14,15,-10,16,-6]],"type":"Polygon","properties":{"amp_en":"Bo Phut / Fisherman's Village","amp_th":"บ่อผุด / ฟิชเชอร์แมนวิลเลจ","pro_code":"84","pro_en":"Surat Thani","pro_th":"สุราษฎร์ธานี","amp_code":"840494"}},{"arcs":[[-15,17,18]],"type":"Polygon","properties":{"amp_en":"Bangrak / Choeng Mon","amp_th":"บางรัก / เชิงมน","pro_code":"84","pro_en":"Surat Thani","pro_th":"สุราษฎร์ธานี","amp_code":"840495"}},{"arcs":[[-11,-16,-19,19]],"type":"Polygon","properties":{"amp_en":"Chaweng","amp_th":"เฉวง","pro_code":"84","pro_en":"Surat Thani","pro_th":"สุราษฎร์ธานี","amp_code":"840496"}}]}}}